name|addr|phone|delivery|king|night|breakfast|parking|dt|lng|lat
종로점|서울특별시 종로구 종로 94 |02-2285-4838|1|1|1|1|0|0|126.988087440713|37.5699451391001
종로구청점|서울특별시 종로구 삼봉로 57 |02-722-0238|1|1|0|0|0|0|126.980473808393|37.5725615164337
시청역점|서울특별시 중구 서소문로 136 |02-777-0332|1|1|0|0|0|0|126.97604290682|37.5635491216557
충무로역점|서울특별시 중구 퇴계로 216 |02-2285-0337|1|1|0|0|0|0|126.995813274893|37.5613345759958
회현역점|서울특별시 중구 퇴계로 52 티마크그랜드호텔 명동 1층 |070-7462-6807|1|1|0|0|0|0|126.978544421858|37.5584186963798
동국대점|서울특별시 중구 필동로1길 30 |02-2277-3006|0|1|0|0|0|0|126.998737605491|37.5589366401553
숭례문점|서울특별시 중구 세종대로 23 |02-777-8801|0|0|0|0|0|0|126.973844589811|37.5590909738298
서대문역점|서울특별시 중구 순화동 215 1층 |070-7462-6847|1|1|0|0|0|0|126.969654984929|37.5631527459053
혜화역점|서울특별시 종로구 동숭길 148 |070-7462-6726|1|1|0|0|0|0|127.002150195429|37.5835250574592
서울역점|서울특별시 용산구 한강대로 405 |02-392-2895|0|1|0|1|0|0|126.971732581232|37.5548375992165
신당역점|서울특별시 중구 다산로 258 |02-2253-0332|1|1|1|1|0|0|127.016623843671|37.5657948536437
약수역점|서울특별시 중구 다산로 142 |070-7438-8605|1|1|0|0|0|0|127.011753862419|37.5562755068924
노량진점|서울특별시 동작구 노량진로 169 |02-816-2176|1|1|0|0|0|0|126.944825413681|37.5140993439637
창동역점|서울특별시 도봉구 노해로 389 |070-7462-6839|1|1|0|0|0|0|127.051335609074|37.6527681735064
양평점|서울특별시 영등포구 선유로 130 |070-7462-6840|1|1|0|0|0|0|126.891376058936|37.5253785170391
쌍문점|서울특별시 도봉구 도당로 6 |02-997-0233|1|1|0|0|0|0|127.035371175956|37.6587118738827
연세로점|서울특별시 서대문구 연세로 25 |02-322-3669|1|1|1|1|0|0|126.936696112402|37.5578946120138
불광점|서울특별시 은평구 통일로 746 |02-383-0233|1|1|0|0|0|0|126.928942996302|37.6120090630277
종로점|서울특별시 종로구 종로 94 |02-2285-4838|1|1|1|1|0|0|126.988087440713|37.5699451391001
상암MBC점|서울특별시 마포구 성암로 255 |02-304-0335|1|1|0|0|0|0|126.89181859148|37.5802785107294
천호역점|서울특별시 강동구 천호대로 1012 |02-473-0331|1|1|0|0|0|0|127.124151797401|37.5380977789536
쌍문SK점|서울특별시 도봉구 도봉로 437 |02-904-0332|1|1|0|0|0|1|127.032158920343|37.6449722642179
압구정로데오점|서울특별시 강남구 압구정로46길 4 |02-3445-0332|1|1|0|0|0|0|127.036664312782|37.5283979765915
명일DT점|서울특별시 강동구 고덕로 168 |02-426-0332|1|1|0|0|0|1|127.144011308896|37.5544786253203
수유역점|서울특별시 강북구 도봉로 314 삼성화재 수유사옥 1층 |070-7462-6837|1|1|0|0|0|0|127.02417263596|37.6361179427387
선릉역점|서울특별시 강남구 선릉로 429 |02-3452-0377|1|1|0|0|0|0|127.049313250519|37.5032022121152
석촌점|서울특별시 송파구 송파대로 448 |02-424-6313|1|1|0|0|0|0|127.106385512845|37.5065967085732
대치역점|서울특별시 강남구 남부순환로 2936 |02-539-0332|1|1|0|0|0|0|127.06191661451|37.4933489108525
구로디지털점|서울특별시 구로구 디지털로 288 |02-857-0332|1|1|0|0|0|0|126.895502765348|37.4835695693308
종로구청점|서울특별시 종로구 삼봉로 57 |02-722-0238|1|1|0|0|0|0|126.980473808393|37.5725615164337
길동사거리점|서울특별시 강동구 양재대로 1440 |02-471-0332|1|1|1|1|0|0|127.139139380301|37.534388953741
서대문역점|서울특별시 중구 순화동 215 1층 |070-7462-6847|1|1|0|0|0|0|126.969654984929|37.5631527459053
문정점|서울특별시 송파구 송이로 239 |02-431-0332|1|1|1|1|0|0|127.131727143881|37.4880493688611
당산역점|서울특별시 영등포구 양평로 58 |02-2678-0332|1|1|0|0|0|0|126.900670131531|37.5350648932852
사당역점|서울특별시 동작구 동작대로 21 |02-583-0332|1|1|1|1|0|0|126.981362070757|37.4784816221514
몽촌토성점|서울특별시 송파구 백제고분로51길 30 |02-421-0332|1|1|0|0|0|0|127.112537076619|37.5169713837016
구로점|서울특별시 구로구 시흥대로 551 |070-7462-8527|1|1|0|0|0|0|126.900246298277|37.4825399425928
목동역점|서울특별시 양천구 오목로 238 |02-2602-0332|1|1|0|0|0|0|126.86394263991|37.5258922323904
충무로역점|서울특별시 중구 퇴계로 216 |02-2285-0337|1|1|0|0|0|0|126.995813274893|37.5613345759958
차병원사거리점|서울특별시 강남구 봉은사로 179 |02-540-0332|1|1|0|1|0|0|127.033395973437|37.5074604391987
강남도곡점|서울특별시 강남구 논현로 172 (도곡동 410-10) 1층 |070-7462-6846|1|1|0|0|0|0|127.041962306209|37.4849548856263
약수역점|서울특별시 중구 다산로 142 |070-7438-8605|1|1|0|0|0|0|127.011753862419|37.5562755068924
청담점|서울특별시 강남구 선릉로 812 |02-3446-7816|1|1|1|1|0|0|127.039724864606|37.5243049058338
수서점|서울특별시 강남구 광평로 280 |02-3412-1557|1|1|0|1|0|0|127.103108072457|37.4873191631489
강남구청점|서울특별시 강남구 선릉로 639 |02-512-5750|1|1|0|0|0|0|127.042319881338|37.5135115182201
강남교보점|서울특별시 서초구 사평대로 371 |02-517-0236 |1|1|1|1|0|0|127.023590349784|37.5045712985968
우장산역점|서울특별시 강서구 강서로 289 |02-2664-0233|1|1|0|0|0|0|126.835972295846|37.5516055446411
학동역점|서울특별시 강남구 학동로 171 |02-543-0332|1|1|0|0|0|0|127.029550652058|37.5140467250769
석관점|서울특별시 성북구 돌곶이로 50 |070-5138-3074|1|1|0|0|0|0|127.059619418105|37.6085883933192
장안SK점|서울특별시 동대문구 한천로 100 |070-7438-8236|1|1|1|1|0|1|127.064994661697|37.5701668831791
신당역점|서울특별시 중구 다산로 258 |02-2253-0332|1|1|1|1|0|0|127.016623843671|37.5657948536437
신림역점|서울특별시 관악구 신림로 318 |02-3285-0332 |1|1|1|1|0|0|126.930252917369|37.4825754320038
연신내역점|서울특별시 은평구 통일로 834 |02-355-0340 |1|1|1|1|0|0|126.922656566282|37.6181229111387
건대역점|서울특별시 광진구 아차산로 272 |070-7462-8511|1|1|0|0|0|0|127.072996184863|37.5385582736952
동국대점|서울특별시 중구 필동로1길 30 |02-2277-3006|0|1|0|0|0|0|126.998737605491|37.5589366401553
홍제역점|서울특별시 서대문구 통일로 464 |02-391-0332|1|1|0|0|0|0|126.943219061658|37.5899629791299
교대역점|서울특별시 서초구 서초대로 283 |02-596-0332|1|1|0|1|0|0|127.01269448384|37.493678364798
영등포KT점|서울특별시 영등포구 영중로 119 |02-2675-0332|1|1|0|0|0|0|126.905176591009|37.526848314445
가재울뉴타운점|서울특별시 서대문구 수색로 56 |02-303-0392|1|1|0|0|0|0|126.912707653517|37.5708136519192
구로구청점|서울특별시 구로구 가마산로 250 |02-856-0332|1|1|0|0|0|0|126.888676526029|37.4948140331034
마곡점|서울특별시 강서구 마곡동로 56 |070-7462-6739|1|1|0|0|0|0|126.833803408762|37.559977905954
공덕역점|서울특별시 마포구 마포대로 144 |02-701-8355|1|1|0|1|0|0|126.953756813538|37.5470013514751
서교동사거리점|서울특별시 마포구 양화로 100 |02-322-3199|1|1|0|0|0|0|126.918683968423|37.5527040168222
안암오거리점|서울특별시 성북구 안암로 73 |02-922-0332|1|1|0|0|0|0|127.029121644742|37.5830403543572
미아역점|서울특별시 강북구 도봉로 188 |02-988-0332|1|1|1|1|0|0|127.026797556758|37.6256368354165
신월점|서울특별시 양천구 화곡로 64 |070-7462-6708|1|1|0|0|0|0|126.828956294663|37.5390578401501
종암점|서울특별시 성북구 종암로 123 |070-7462-6709|1|1|0|0|0|0|127.033166191324|37.6010132669533
상암점|서울특별시 마포구 월드컵북로 344 |070-7462-6718|1|1|0|0|0|0|126.893889591525|37.5765055871542
박석고개SK점|서울특별시 은평구 통일로 945 |070-7462-6723|1|1|0|0|0|1|126.919398367026|37.6272854815736
혜화역점|서울특별시 종로구 동숭길 148 |070-7462-6726|1|1|0|0|0|0|127.002150195429|37.5835250574592
먹골역점|서울특별시 중랑구 동일로 890 |070-7462-6725|1|1|0|0|0|0|127.078189221962|37.6099151597192
공릉역점|서울특별시 노원구 동일로 1085 |070-7438-8217|1|1|1|1|0|0|127.072106149743|37.626698760512
거여역점|서울특별시 송파구 오금로 519 |070-7438-8219|1|1|0|0|0|0|127.14651816376|37.4930969613738
황학이마트점|서울특별시 중구 청계천로 400 |02-2256-0231|0|1|0|0|0|0|127.021463886656|37.5708105464699
낙성대점|서울특별시 관악구 남부순환로 1934 |070-7438-8235|1|1|0|0|0|0|126.963735538331|37.4766373051657
가산이앤씨7점|서울특별시 금천구 디지털로9길 46 |070-7438-8601|1|1|0|1|0|0|126.887100662443|37.4800588086696
숭례문점|서울특별시 중구 세종대로 23 |02-777-8801|0|0|0|0|0|0|126.973844589811|37.5590909738298
개봉점|서울특별시 구로구 개봉로 55 |070-7438-8623|1|1|0|0|0|0|126.855708578139|37.4905756220475
왕십리센트라스점|서울특별시 성동구 왕십리로 410 |070-7438-8625|1|1|0|0|0|0|127.02408246322|37.566590498762
군자능동점|서울특별시 광진구 능동로 245 |070-7462-6703|1|1|0|0|0|0|127.076537319859|37.5522322050293
신설동역점|서울특별시 동대문구 보문로 6 |070-7462-6775|1|1|0|0|0|0|127.023530607859|37.5761363837871
반포고속터미널점|서울특별시 서초구 신반포로 194 |02-534-0332|1|1|0|0|0|0|127.006834366246|37.5064357442307
문정역점|서울특별시 송파구 법원로 8길 13 |070-7462-6747|1|1|0|0|0|0|127.122304167596|37.4845525070838
금천독산FS점|서울특별시 금천구 시흥대로 388 |070-7462-6760|1|1|0|0|0|0|126.898354721526|37.4681196551816
둔촌GS FS점|서울특별시 강동구 양재대로 1323 |070-7462-6767|1|1|0|0|0|0|127.134421461173|37.5245352149831
청담주성점|서울특별시 강남구 청담동 영동대로 716 |02-544-9762|1|1|0|0|0|1|127.056680709065|37.521943936469
강남대로점|서울특별시 강남구 강남대로 406 |02-566-0332|1|1|0|1|0|0|127.027622767131|37.4989401291583
관악롯데점|서울특별시 관악구 보라매로3길 31 |070-7462-8516|0|0|0|0|0|0|126.925029940963|37.4907379784252
가산디지털점|서울특별시 금천구 가산디지털1로 168 |02-853-0332 |1|1|0|0|0|0|126.88263620024|37.479966429878
가산현대시티아울렛점|서울특별시 금천구 디지털로10길 9 |02-2136-9962|0|0|0|0|0|0|126.88905533739|37.4776190161713
가양이마트점|서울특별시 강서구 양천로 559 |02-3664-0221|0|1|0|0|0|0|126.861817646457|37.558194814626
방배카페골목|서울특별시 서초구 방배중앙로 200 |02-599-9940|1|1|0|0|0|0|126.985631855151|37.4970248728691
시청역점|서울특별시 중구 서소문로 136 |02-777-0332|1|1|0|0|0|0|126.97604290682|37.5635491216557
종합운동장사거리점|서울특별시 송파구 올림픽로 76 |070-7462-6856|1|1|0|0|0|0|127.079181383259|37.5115603565131
목동이마트점|서울특별시 양천구 오목로 299 |02-2654-0332|0|1|0|0|0|0|126.87035534357|37.5260837006075
목동현대점|서울특별시 양천구 목동동로 257 |070-7462-8564|0|0|0|0|0|0|126.874691181758|37.5271978737652
서여의도점|서울특별시 영등포구 국회대로70길 23 |02-780-0993|1|1|0|1|0|0|126.921011762639|37.5288760479466
서울역점|서울특별시 용산구 한강대로 405 |02-392-2895|0|1|0|1|0|0|126.971732581232|37.5548375992165
송파구청점|서울특별시 송파구 오금로 99 |02-419-0332|1|1|0|0|0|0|127.107839492295|37.5134170729898
연희점|서울특별시 서대문구 연희로 97 |02-3144-6633|1|1|0|0|0|0|126.930516521058|37.5668038837366
용산이마트점|서울특별시 용산구 한강대로23길 55 |02-793-0331|0|1|0|0|0|0|126.964741503485|37.5297718014452
고대중앙광장점|서울특별시 성북구 안암로 145 |070-7462-8772|0|1|0|0|0|0|127.031698331241|37.5887034223667
대치점|서울특별시 강남구 도곡로 447 |02-556-8595|1|1|0|0|0|0|127.059315262317|37.4986941157594
양재점|서울특별시 서초구 강남대로 221 |02-577-0407|1|1|0|1|0|0|127.034117823374|37.4836850972087
신대방삼거리역점|서울특별시 동작구 상도로 83 |070-7462-6791|1|1|0|0|0|0|126.929876950722|37.4999054539561
위례신도시GS점|서울특별시 송파구 위례중앙로43 GS주유소 내 |070-7462-6773|1|1|0|0|0|1|127.132288546135|37.4753528139164
강남NC점|서울특별시 서초구 잠원로 69 |02-595-9042|0|1|0|1|0|0|127.006970780391|37.5102605018374
국제점|서울특별시 용산구 한강대로 92 |02-794-8211|1|1|0|0|0|0|126.96752270323|37.5281759339792
방배점|서울특별시 서초구 방배로 127 (방배동 925-3) | 070-7462-6795|1|1|0|0|0|0|126.994860973768|37.4852579365619
녹번대성GS점|서울특별시 은평구 통일로 642 |070-7462-6801|1|1|0|0|0|1|126.935207500802|37.6040033229848
서울대입구역점|서울특별시 관악구 남부순환로 1796 |070-7462-6868|1|1|0|0|0|0|126.949595277943|37.4813226832698
가양역점|서울특별시 강서구 양천로 476 |070-7462-6886|1|1|0|0|0|0|126.853271958466|37.5616001805127
신촌1점|서울특별시 서대문구 신촌로 121 |070-7438-6531|1|1|0|0|0|0|126.939295914138|37.5562057965146
망우점|서울특별시 중랑구 망우로 400 |070-7438-6513|1|1|0|0|0|0|127.096589961709|37.5987572807336
구의점|서울특별시 광진구 아차산로 466 |070-7438-6504|1|1|0|0|0|0|127.093899018471|37.539749401091
신정네거리역점|서울특별시 양천구 중앙로 275 |070-7438-6521|1|1|1|1|0|0|126.852226262711|37.520781006605
강동구청점|서울특별시 강동구 성내로 22 |070-7462-6822|1|1|0|0|0|0|127.122830427749|37.5295892118638
건대입구역점|서울특별시 광진구 아차산로 229 1층 |070-7462-6823|1|1|1|1|0|0|127.068990676571|37.540809126931
노원역점|서울특별시 노원구 노해로 456 |070-7462-6806|1|1|0|0|0|0|127.058798321497|37.6535872870243
회현역점|서울특별시 중구 퇴계로 52 티마크그랜드호텔 명동 1층 |070-7462-6807|1|1|0|0|0|0|126.978544421858|37.5584186963798
염창역점|서울특별시 양천구 공항대로 630 |070-7462-6819|1|1|0|0|0|0|126.874714381046|37.5465353390135
부산태화점|부산광역시 부산진구 서전로10번길 64 |051-818-9836|1|1|1|1|0|0|129.0597335255|35.1550921423824
부산대연GS점|부산광역시 남구 수영로 288 |051-626-0332|1|1|1|1|0|1|129.097980849785|35.1361430454957
부산화명점|부산광역시 북구 화명대로 44 |070-7462-6865|1|1|0|0|0|0|129.012987715947|35.2343574517192
부산용호분포SK점|부산광역시 남구 용호로 116 |051-624-0332|1|1|0|0|0|1|129.111948559821|35.1221176029821
부산센텀오일뱅크점|부산광역시 해운대구 해운대로 179 |070-7438-8229|1|1|0|1|0|1|129.123555955914|35.1818828522176
부산연산RFS점|부산광역시 연제구 중앙대로 1087 |051-868-0332|1|1|0|0|0|0|129.080394679649|35.1850163208968
부산금정오일뱅크점|부산광역시 금정구 중앙대로 1664 |070-7438-8613|1|1|0|0|0|1|129.092053267885|35.2330520447642
해운대신도시1점|부산광역시 해운대구 좌동순환로 310 |051-701-0331|1|1|0|0|0|0|129.182530206311|35.1684762276954
부산양정점|부산광역시 부산진구 중앙대로 900 |070-7462-6737|1|1|0|0|0|0|129.069671556254|35.1704805161232
부산서부터미널점|부산광역시 사상구 사상로 201 |051-311-9713|1|1|1|1|0|0|128.98098582427|35.1631461622437
부산안락DT점|부산광역시 동래구 충렬대로 311 |051-556-3800|1|1|0|0|0|1|129.093160446225|35.1998210809746
부산정관DT점|부산광역시 기장군 정관읍 용수로 48 |070-7438-8624|1|1|0|0|0|1|129.17627439456|35.3272190192714
부산대점|부산광역시 금정구 금정로 66 |070-7462-6769|1|1|0|0|0|0|129.086622641852|35.2304868979592
부산광복롯데|부산광역시 중구 중앙대로 2 |070-7462-8575|0|1|0|0|0|0|129.036702283651|35.0983052585975
해운대비치점|부산광역시 해운대구 구남로 27 |051-731-0054|1|1|0|0|0|0|129.160891004603|35.161756049363
부산괴정역점|부산광역시 사하구 사하로 200 |051-292-2931|1|1|0|0|0|0|128.993705061139|35.0995766787608
부산망미SK점|부산광역시 연제구 과정로 120 부흥주유소 |051-751-3737|1|1|0|0|0|1|129.107462250933|35.1822674356657
해운대우동점|부산광역시 해운대구 해운대로452번길 16 |051-741-5200|1|1|0|0|0|0|129.14121065717|35.1632881234695
부산서면일번가점|부산광역시 부산진구 서면로 48 |070-7462-6812|1|1|0|0|0|0|129.058036362593|35.1549519363845
부산주례점|부산광역시 사상구 가야대로 298 |070-7438-6507|1|1|0|0|0|0|129.005149366834|35.1504020544563
상인SK점|대구광역시 달서구 월배로 200 |053-632-0889|1|1|0|0|0|1|128.535468987286|35.8179375087433
대구문화점|대구광역시 중구 동성로2길 95 |053-254-0323|1|1|0|0|0|0|128.596901118103|35.870189921818
대구율하점|대구광역시 동구 안심로22길 10 |053-959-1126|1|1|0|0|0|0|128.69609062839|35.8664322309717
대구만촌점|대구광역시 수성구 달구벌대로 2622 |053-741-0208|1|1|0|1|0|1|128.648714082432|35.8570415438506
대구삼성창조캠퍼스점|대구광역시 북구 호암로 51 |053-354-0332|1|1|0|0|0|0|128.595975391473|35.8836868233949
경대병원역SK점|대구광역시 중구 달구벌대로 2194 |053-253-0332|1|1|1|1|0|1|128.60319050865|35.8626626981932
대구지산점|대구광역시 수성구 지범로 159 |053-783-1557|1|1|0|0|0|0|128.637626053528|35.8227619697683
대구평리DT점|대구광역시 서구 국채보상로 298 |053-566-0332|1|1|0|0|0|1|128.563482779719|35.8715344409181
대구성서이마트점|대구광역시 달서구 이곡동로 24 |053-583-1332|0|0|0|0|0|0|128.510168417539|35.8533295916132
대구죽전네거리DT|대구광역시 달서구 달구벌대로 1536 |053-526-5959|1|1|0|0|0|1|128.535168263202|35.8495274141591
대구시지점|대구광역시 수성구 신매로19길 46 |053-791-0331|1|1|0|0|0|0|128.707241631198|35.8394867342289
대구산격DT점|대구광역시 북구 검단로 29 |070-7462-6745|1|1|0|0|0|1|128.615214059775|35.9005566969158
대구대명FS점|대구광역시 남구 대명로 89 |053-263-0233|1|1|0|0|0|0|128.56754357345|35.8397496300296
대구중앙로점|대구광역시 중구 중앙대로 398 |070-7462-6757|1|1|0|0|0|0|128.593975345918|35.8685360796545
대구이시아폴리스점|대구광역시 동구 팔공로 49길 51 |053-986-7733|1|1|0|0|0|0|128.635909630552|35.9206686509188
반야월이마트|대구광역시 동구 안심로 389-2 |053-965-0334|1|1|0|0|0|0|128.727433746817|35.8708526747902
삼성라이온즈파크점|대구광역시 수성구 야구전설로 1 |070-7462-9972|0|0|0|0|0|0|128.681236372268|35.8411289243023
대구서재FS점|대구광역시 달성군 다사읍 서재로 66 |070-7462-6867|1|1|0|0|0|0|128.496670998308|35.869438000277
대구테크노폴리스점|대구광역시 달성군 현풍면 테크노중앙대로 243 |053-617-6777|1|1|0|0|0|0|128.457390532274|35.6921390334867
대구칠곡3지구점|대구광역시 북구 팔거천동로 224 |053-324-3322|1|1|0|0|0|0|128.558705932595|35.9438869156379
대구월촌역FS점|대구광역시 달서구 월배로 320 |070-7462-6880|1|1|0|0|0|0|128.546226709476|35.823933932827
삼산SK점|인천광역시 부평구 장제로 347 |032-506-3643|1|1|0|0|0|1|126.731839941907|37.5164879483002
인천작전점|인천광역시 계양구 계양대로 37 |032-555-0332|1|1|0|0|0|0|126.721995662938|37.5271157292285
인천연수점|인천광역시 연수구 용담로 111 |032-812-8858|1|1|0|0|0|0|126.677491194319|37.4153138721478
인천구월아시아드SK점|인천광역시 남동구 호구포로 725 |032-469-0332|1|1|0|0|0|1|126.718104062076|37.4471731943937
인천송도DT점|인천광역시 연수구 송도과학로 13 |032-818-0332|1|1|1|1|0|1|126.660672424939|37.383857422658
영종하늘도시DT점|인천광역시 중구 자연대로 55 |032-747-0340|1|1|0|1|0|1|126.558200850696|37.4893214870176
인천계양구청점|인천광역시 계양구 장제로 804 |032-552-0332|1|1|0|0|0|0|126.734960628885|37.5394836297326
인천청라점|인천광역시 서구 중봉대로 610 |032-561-1332|1|1|0|0|0|0|126.650290554481|37.5338943852652
인천공항교통센터1점|인천광역시 중구 공항로 271 |070-7438-8626|0|0|0|1|0|0|126.452346738588|37.4476109663729
인천검단점|인천광역시 서구 검단로 470 |070-7462-6724|1|1|0|0|0|0|126.656781764916|37.6015089708071
인천만수역점|인천광역시 남동구 구월로 376 |070-7462-6746|1|1|0|0|0|0|126.7323051171|37.4547130758915
부평시장역점|인천광역시 부평구 부평대로 90 |070-7462-6765|1|1|1|1|0|0|126.722454664272|37.499555989099
인천공항1점|인천광역시 중구 공항로 424번길 47 |032-743-6272|0|0|0|0|0|0|126.461333677371|37.4403944092737
인천논현점|인천광역시 남동구 논고개로 61 |032-431-0332 |1|1|0|0|0|0|126.727520375664|37.3975373516636
인천구월점|인천광역시 남동구 예술로 138 |070-7462-8793|1|1|0|0|0|0|126.701006353999|37.4462417896974
인천완정역점|인천광역시 서구 원당대로 651 |070-7462-6858|1|1|0|0|0|0|126.673771066658|37.5940986908703
문학야구장점|인천광역시 남구 매소홀로 618 |032-424-0332|0|0|0|0|0|0|126.686460617327|37.4365451636913
송도현대아울렛점|인천광역시 연수구 송도국제대로 123 |070-7462-9975|0|0|0|0|0|0|126.657917047216|37.3816291013573
인천송도센트럴파크점|인천광역시 연수구 센트럴로 194B동 1층 118호, 119호, 120호, 134호|032-832-8531|1|1|0|0|0|0|126.641874180513|37.3937862653635
인천연수HP점|인천광역시 연수구 청능대로 210, 지하1층(동춘동, 홈플러스연수점) |032-815-2176|0|0|0|0|0|0|126.683622060373|37.4059981630337
인천주안점|인천광역시 미추홀구 주안로 86 |070-7462-6870|1|1|1|1|0|0|126.67922171474|37.4638502206899
인천서창SK점|인천광역시 남동구 서창동 728 |070-7438-6520|1|1|0|0|0|1|126.756670268812|37.4246463244163
광주주월에스오일점|광주광역시 남구 회재로 1190 |070-7438-8609|1|1|0|0|0|1|126.891756456766|35.1319353659368
광주일곡점|광주광역시 북구 설죽로 495 |062-573-0305|1|1|0|0|0|0|126.898078628055|35.2033537306422
호남대점|광주광역시 광산구 어등대로 418-1 |062-946-7700|1|1|0|0|0|0|126.769608428481|35.1488353074168
광주수완점|광주광역시 광산구 장신로 142 |062-953-0233|1|1|0|0|0|0|126.825607060443|35.1904287506985
광주수완DT점|광주광역시 광산구 임방울대로 493 |070-7462-6758|1|1|0|0|0|1|126.819225777765|35.2035321813469
전남대후문점|광주광역시 북구 우치로 76 |062-251-0332|1|1|1|1|0|0|126.912952297771|35.1741875736968
광주상무점|광주광역시 서구 치평로 106 |062-381-0331|1|1|0|0|0|0|126.847782227383|35.1567863156523
광주봉선점|광주광역시 남구 봉선로 180 |062-671-0331|1|1|0|0|0|0|126.914822396568|35.1228410702042
광주첨단2지구점|광주광역시 북구 첨단연신로91번길 10 |062-574-2457|1|1|0|0|0|0|126.863266801363|35.2065518542561
광주충장점|광주광역시 동구 충장로 안길 38 |062-225-0298|1|1|0|0|0|0|126.917010832509|35.147069424446
광주터미널점|광주광역시 서구 무진대로 904 |062-363-0332|1|1|0|0|0|0|126.879873116288|35.1605756425809
광주월계점|광주광역시 광산구 첨단중앙로 104 |062-973-5599|1|1|0|0|0|0|126.843331859624|35.2146214730841
대전용문역점|대전광역시 서구 계룡로 630 |070-7462-6864|1|1|0|0|0|0|127.391923837398|36.3390091103489
대전반석DT점|대전광역시 유성구 북유성대로 288 |042-825-0410|1|1|0|1|0|1|127.316216925256|36.3907845559861
대전용두DT점|대전광역시 중구 계룡로 853 |042-221-0332|1|1|0|0|0|1|127.409922559442|36.3251029602163
대전월평점|대전광역시 서구 월평북로 81 |070-7462-6717|1|1|0|0|0|0|127.37731773784|36.3624441315679
대전도안점|대전광역시 서구 동서대로 682 |042-825-0282|1|1|0|0|0|0|127.338633146752|36.331814949449
대전유성온천역점|대전광역시 유성구 대학로 8 |070-7462-6759|1|1|0|0|0|0|127.342174696061|36.3542929289483
대전관저점|대전광역시 서구 구봉로 147번길 68-12 |070-7462-6766|1|1|0|0|0|0|127.33897270155|36.2992967473195
대전터미널DT점|대전광역시 동구 동서대로 1664 |042-624-0332|1|1|0|1|0|1|127.434913375124|36.3481201434472
대전관평점|대전광역시 유성구 테크노4로 105 |042-934-0113|1|1|0|0|0|0|127.389759635176|36.4252923002614
대전시청점|대전광역시 서구 문예로 35 |042-489-0331|1|1|0|1|0|0|127.389886832965|36.3498561941267
대전노은역점|대전광역시 유성구 은구비남로33번길 61 |070-7462-6875|1|1|0|0|0|0|127.319129585173|36.3751164258925
대전버드내마을오일뱅크점|대전광역시 중구 계백로 1520 |070-7462-6772|1|1|0|0|0|1|127.388973635483|36.3159971621366
대전둔산1점|대전광역시 서구 대덕대로 193 |070-7462-6805|1|1|1|1|0|0|127.377460683541|36.3505360156304
대전현대아울렛점|대전광역시 유성구 테크노중앙로 123,지상3층3202-2호 |042-332-2811|0|0|0|0|0|0|127.398516767788|36.4234369155218
울산동구오일뱅크점|울산광역시 동구 방어진순환도로 1025 |052-232-0331|1|1|0|0|0|1|129.432238209767|35.5326028377429
울산무거점|울산광역시 남구 대학로 157 |052-249-0332|1|1|0|0|0|0|129.262414392765|35.5486923785419
울산우정SK점|울산광역시 중구 북부순환도로 323 |052-246-0332|1|1|0|1|0|1|129.296781480969|35.5595947130607
삼산현대점|울산광역시 남구 삼산로 261 |070-7462-8594|0|0|0|0|0|0|129.335811485046|35.5395698929406
울산신정FS점|울산광역시 남구 봉월로 97 |052-268-5888|1|1|0|0|0|0|129.305389450203|35.5412416616763
울산북구청DT점|울산광역시 북구 안기번득길 23 |070-7462-6874|1|1|0|0|0|1|129.358528217898|35.5863325578639
울산성남점|울산광역시 중구 만남의거리 15 |070-7438-6529|1|1|0|0|0|0|129.320799616168|35.5543097302118
울산옥동점|울산광역시 남구 문수로 326 |070-7438-6558|1|1|0|0|0|0|129.289003720558|35.5350063466309
충남대병원DT점|세종특별자치시 보듬5로 6 |044-862-7676|1|1|0|0|0|1|127.258386119726|36.5167264903234
세종행복새롬점|세종특별자치시 어울로 77세종 |044-864-0894|1|1|0|0|0|1|127.253939854427|36.481958184189
세종반곡점|세종특별자치시 한누리대로 1948 |070-8848-3955|1|1|0|0|0|0|127.302849080804|36.4905684476656
세종고운점|세종특별자치시 보듬3로 154 |070-7438-6515|1|1|0|0|0|0|127.242654324251|36.5122578162982
분당상록점|경기도 성남시 분당구 정자로 88 |031-716-3737|1|1|1|1|0|0|127.114438686502|37.3631668687279
화성시청점|경기도 화성시 남양읍 시청로 113 |070-7462-6836|1|1|0|0|0|0|126.826078132416|37.2008885449411
배곧아브뉴프랑점|경기도 시흥시 서울대학로 264번길 35 |070-7462-6841|1|1|0|0|0|0|126.728468295924|37.3677103184992
송죽DT점|경기도 수원시 장안구 경수대로 992 |031-241-2759|1|1|0|0|0|1|127.003434463045|37.3054725506799
죽전DT점|경기도 용인시 수지구 용구대로 2751 |031-272-0331|1|1|0|0|0|1|127.108479223996|37.331329037016
판교유스페이스|경기도 성남시 분당구 대왕판교로 660 |070-7462-8658|1|1|0|0|0|0|127.106812648944|37.4004659332759
수지GS점|경기도 용인시 수지구 신수로 781 |031-276-0335|1|1|0|0|0|1|127.102353485863|37.3393343876975
시흥정왕점|경기도 시흥시 정왕동 1738-2 |070-7462-6849|1|1|1|1|0|0|126.737841685446|37.3447050360607
분당야탑점|경기도 성남시 분당구 성남대로916번길 11 |031-706-0334|1|1|0|0|0|0|127.129841388588|37.4108569664981
의정부용현DT점|경기도 의정부시 시민로 462 |070-7462-6838|1|1|0|0|0|1|127.083528167695|37.7308249742014
수원호매실SK점|경기도 수원시 권선구 호매실동 1374-1 |070-7462-6863|1|1|0|0|0|1|126.961791467153|37.2669254020363
김포한강GS점|경기도 김포시 김포한강3로 400 |070-7438-8604|1|1|0|0|0|1|126.647512514756|37.6417669491838
평촌학원가점|경기도 안양시 동안구 평촌대로 112 |031-386-0332|1|1|0|0|0|0|126.961201521342|37.3825309683152
평촌금성GS점|경기도 안양시 동안구 시민대로 325 |031-423-0332|1|1|1|1|0|1|126.96601859287|37.3960889723116
안산제이DT점|경기도 안산시 단원구 선부광장로 33 |031-413-0332|1|1|1|1|0|1|126.810898925838|37.3359398602934
금촌역점|경기도 파주시 중앙로 328 |031-945-0346|1|1|0|0|0|0|126.774526348385|37.7648793577996
일산산들SK점|경기도 고양시 일산서구 고양대로 717 |031-977-0034|1|1|0|0|0|1|126.775748677563|37.6835319325396
과천중앙점|경기도 과천시 중앙로 129 |02-504-0332|1|1|0|0|0|0|126.991003155267|37.4283051416302
일산마두점|경기도 고양시 일산동구 장백로 194 |031-908-5833|1|1|0|0|0|0|126.776668348232|37.6520876291657
화성능동FS점|경기도 화성시 동탄지성로 190 |031-267-0332|1|1|0|0|0|0|127.055606888593|37.2119489478889
오산원동FS점|경기도 오산시 경기대로 238 |031-373-0332|1|1|0|0|0|0|127.073904566136|37.1458890045975
수원정자점|경기도 수원시 장안구 이목로 24-3 |031-271-0332|1|0|0|0|0|0|126.984746205061|37.3096541342515
수원영통점|경기도 수원시 영통구 봉영로 1623 |031-205-0335|1|1|0|0|0|0|127.074734153872|37.2559361671782
광교아브뉴프랑점|경기도 수원시 영통구 센트럴타운로 85 |031-212-0360|1|1|0|0|0|0|127.050470929016|37.2915676707273
부천원종점|경기도 부천시 오정구 소사로 713 |032-672-0302|1|1|0|0|0|0|126.804522508265|37.5196594984385
부천세이브존점|경기도 부천시 원미구 길주로 105 |032-322-0203 |1|0|0|0|0|0|126.754135635056|37.5063910880502
일산화정오일뱅크점|경기도 고양시 덕양구 화중로 38 |031-938-0332|1|1|0|0|0|1|126.830356799284|37.6307281499333
고양터미널점|경기도 고양시 일산동구 중앙로 1036 |070-7462-8799|0|1|0|0|0|0|126.789661775652|37.6431782758332
지산리조트점|경기도 이천시 마장면 지산로 267 |031-638-6779|0|0|0|0|0|0|127.342057220587|37.2190000499312
구리SK점|경기도 구리시 경춘로 196 |070-7462-8798|1|1|1|1|0|1|127.137100681135|37.6002828258865
평택서정점|경기도 평택시 경기대로 1371 |031-664-0332|1|1|0|0|0|0|127.063696299329|37.0674820040145
수지구청역점|경기도 용인시 수지구 풍덕천로 145 |031-264-7332|1|1|0|0|0|0|127.097363140093|37.3243177743666
오산세교에스오일점|경기도 오산시 경기대로 692 |070-7462-6732|1|1|0|0|0|1|127.052249767856|37.1815250027099
안양관양점|경기도 안양시 동안구 관악대로 312 |070-7462-6734|1|1|0|0|0|0|126.957654828358|37.4027784294493
주엽역점|경기도 고양시 일산서구 중앙로 1443 |070-7462-6736|1|1|0|0|0|0|126.759713618834|37.6703948302683
의정부민락점|경기도 의정부시 천보로 68 |070-7462-6741|1|1|0|0|0|0|127.094116996736|37.7454531531066
의정부DT점|경기도 의정부시 호국로1336번길 1 |031-821-0332|1|1|1|1|0|1|127.052750386186|37.7440989112641
남양주화도DT점|경기도 남양주시 화도읍 경춘로 1718 |070-7462-6727|1|1|0|0|0|1|127.281973108425|37.6554572976494
광명소하DT점|경기도 광명시 오리로 361 |070-7462-6721|1|1|0|0|0|1|126.879187420398|37.4345883433508
하남이마트점|경기도 하남시 덕풍서로 70 |031-795-0237|0|1|0|0|0|0|127.205368969258|37.5527495644556
평택청북점|경기도 평택시 청북읍 청북남로 260 |031-684-5353|1|1|0|0|0|0|126.915319112734|37.0196297903296
동탄2신도시SK점|경기도 화성시 동탄순환대로 731 |070-7438-8618|1|1|0|0|0|1|127.107916268476|37.2086348222577
분당차병원점|경기도 성남시 분당구 야탑로 64 |070-7438-8627|1|1|0|0|0|0|127.125978531405|37.4095029491435
시흥목감SK점|경기도 시흥시 동서로 996 |070-7438-8619|1|1|0|0|0|1|126.854984350206|37.3791754537825
광주경안점|경기도 광주시 경안로 10 |031-797-5010|1|0|0|0|0|0|127.259458562335|37.4101879252385
부천중동점|경기도 부천시 신흥로 163 |032-328-0332|1|1|0|0|0|0|126.776997651589|37.4982306567412
수원망포점|경기도 수원시 영통구 영통로 108 |031-206-0332|1|1|0|0|0|0|127.057943148574|37.2381034492416
수원인계DT점|경기도 수원시 팔달구 경수대로 501 |070-7462-6748|1|1|0|0|0|1|127.027679141849|37.2708568724517
남양주진접FS점|경기도 남양주시 진접읍 해밀예당1로 13 |070-7462-6768|1|1|0|0|0|0|127.184876121868|37.7108586811692
용인신갈점|경기도 용인시 기흥구 중부대로 375 |031-275-0332|1|1|0|0|0|0|127.10785938159|37.2719908869697
동탄점|경기도 화성시 동탄반석로 156 |031-8015-0131|1|1|0|0|0|0|127.071582654701|37.2023254396035
광명소하마트|경기도 광명시 소하로 97 |02-899-0337|0|1|0|0|0|0|126.884553002261|37.446594050365
안산고잔점|경기도 안산시 단원구 광덕대로 154 |031-405-8595|1|1|0|0|0|0|126.83073462084|37.3101707387957
의정부신세계점|경기도 의정부시 평화로 525 |031-8082-0254|0|1|0|0|0|0|127.045879450143|37.7379901517646
의정부HP점|경기도 의정부시 청사로 38 |031-850-8080|0|0|0|0|0|0|127.071001320782|37.7521637153577
일산호수공원|경기도 고양시 일산동구 중앙로1275번길 38-10 |031-932-0334|1|1|0|0|0|0|126.770892649054|37.659914452377
상록수역점|경기도 안산시 상록구 용신로 394 |031-501-0332|1|1|1|1|0|0|126.86588638955|37.3013718655561
오산궐동점|경기도 오산시 궐동 궐리사로 61 |031-377-8595|1|1|0|0|0|0|127.059312257989|37.1592894649499
동두천DT점|경기도 동두천시 평화로2261번길 2 |070-7462-8789|1|1|1|1|0|1|127.056477295322|37.8900069755792
수원역사점|경기도 수원시 팔달구 덕영대로 924 |070-7462-8612|0|1|0|1|0|0|127.000096053009|37.2656768667795
안성공도DT점|경기도 안성시 공도읍 서동대로 4294 |070-7462-6857|1|1|0|0|0|1|127.179889587148|37.0042450521647
분당서현점|경기도 성남시 분당구 분당로53번길 19 |031-704-8199|1|1|0|0|0|0|127.122175726323|37.3845236910216
분당수내점|경기도 성남시 분당구 내정로 167 |031-714-5858|1|1|0|0|0|0|127.119149700382|37.373894153921
서수원이마트|경기도 수원시 권선구 수인로 291 |031-296-0332|1|1|0|0|0|0|126.97014551047|37.28262996578
성남이마트점|경기도 성남시 수정구 수정로 201 |031-758-0332|0|1|0|0|0|0|127.141411017385|37.4442862725336
아주대병원점|경기도 수원시 영통구 월드컵로 164 |031-215-2256|0|1|0|1|0|0|127.047519717452|37.2794469469635
수원매탄점|경기도 수원시 영통구 효원로 400 |031-211-1882|1|1|0|0|0|0|127.045385098491|37.2580622885128
이천CGV점|경기도 이천시 중리천로 58 |031-635-7976|1|1|0|0|0|0|127.444158605923|37.2796454482672
김포현대아울렛|경기도 김포시 고촌읍 아라육로 152번길 100 |031-8048-2503|0|0|0|0|0|0|126.785233626536|37.5972368549658
부천북부역점|경기도 부천시 부천로 25 |070-7462-6777|1|1|0|0|0|0|126.782819512153|37.48669538699
용인동백점|경기도 용인시 기흥구 동백5로 23 |031-287-8815|1|1|0|0|0|0|127.152284665482|37.2764789917162
평택비전점|경기도 평택시 비전2로 195 |031-618-2798|1|1|0|0|0|0|127.111785216799|37.0013873306183
경기양평점|경기도 양평군 양평읍 양평시장길 18번길 1 |031-771-0092|1|1|0|0|0|0|127.491715436606|37.4906785901922
수원시청점|경기도 수원시 팔달구 권광로 163 |031-222-0366|1|1|0|0|0|0|127.031744835484|37.2624367884503
스타필드고양점|경기도 고양시 덕양구 고양대로 1955 |070-7438-8238|0|0|0|0|0|0|126.89477806511|37.6469771187284
고양덕양FS점|경기도 고양시 덕양구 호국로 1821 |070-7462-6800|1|1|0|0|0|0|126.908042722262|37.7130947819736
양주덕정FS점|경기도 양주시 독바위로 24 |070-7462-6813|1|1|0|0|0|0||
양주고읍DT점|경기도 양주시 고덕로 363 |070-7462-6789|1|1|0|0|0|1|127.08037751383|37.8038283921975
화성병점점|경기도 화성시 효행로 1032 |070-7462-6878|1|1|0|0|0|0|127.040369805771|37.2131218903615
하남미사점|경기도 하남시 미사강변대로 48 |070-7462-6877|1|1|0|0|0|0|127.186217037852|37.5543479754223
남양주별내오일뱅크점|경기도 남양주시 송산로 149 |070-7462-6871|1|1|0|0|0|1|127.129353503408|37.6557727539214
부천옥길점|경기도 부천시 옥길로 118 |070-7462-6884|1|1|0|0|0|0|126.822920181297|37.4673188024018
고양덕이DT점|경기도 고양시 일산서구 경의로 850 |070-7462-6885|1|1|0|0|0|1|126.759791652709|37.6933715058444
남양주다산지금점|경기도 남양주시 다산지금로 132 |070-7438-6530|1|1|0|0|0|0|127.173547748991|37.6012392833329
산본점|경기도 군포시 산본로 382 |031-395-0332|1|1|0|0|0|0|126.930374328045|37.3643683855692
김포구래점|경기도 김포시 구래동 6880-3 |070-7438-6503|1|1|0|0|0|0|126.626886551828|37.645992993199
동탄호수공원레이크꼬모점|경기도 화성시 동탄대로 181 |070-7438-6511|1|1|0|0|0|0|127.104078001389|37.1720762292297
성남신흥점|경기도 성남시 수정구 산성대로 305 |070-7438-6539|1|1|0|0|0|0|127.150604106193|37.442466581056
시흥은계점|경기도 시흥시 은계번영길 9 |070-7438-6538|1|1|0|0|0|0|126.80163294672|37.4375150988434
포천축석휴게소FS점|경기도 포천시 소흘읍 호국로 66 |070-7438-6545|1|1|0|0|0|0|127.119744702434|37.7813796807279
고양삼송점|경기도 고양시 권율대로 907 |070-7438-6561|1|1|0|0|0|0|126.891054368316|37.6645309923824
김포풍무역점|경기도 김포시 유현로 234 |070-7438-6560|1|1|0|0|0|0|126.731237197209|37.6113414013818
송내역점|경기도 부천시 부일로 203 상동스카이뷰자이상가 122~124호 |070-7462-6825|1|1|0|0|0|0|126.75245574365|37.4891345191571
안산중앙역점|경기도 안산시 단원구 중앙대로 927 |070-7438-8237|1|1|0|0|0|0|126.839565181544|37.3171271257996
평택죽백DT점|경기도 평택시 만세로 1709 |070-7462-6814|1|1|0|0|0|1|127.113151903079|37.0136589358829
의정부서부역점|경기도 의정부시 신흥로252 |070-7462-6815|1|1|0|0|0|0|127.043417016088|37.738788712814
화성봉담점|경기도 화성시 봉담읍 와우로 80 |070-7462-6818|1|1|0|0|0|0|126.974843877708|37.2135786956817
파주야당역점|경기도 파주시 소리천로8번길 36 |070-7462-6894|1|1|0|0|0|0|126.76016586104|37.7125733546805
구리갈매점|경기도 구리시 산마루로 24 |070-7438-6514|1|1|0|0|0|0|127.116553532519|37.6311282436982
춘천온의점|강원도 춘천시 온의동 588-9 |070-7462-6848|1|1|0|0|0|0|127.720414100992|37.8677658992612
속초DT점|강원도 속초시 동해대로 4059 |033-638-0334|1|1|0|0|0|1|128.590707334244|38.1893006957377
춘천거두GS점|강원도 춘천시 동내면 춘천순환로 59 |033-264-0332|1|1|1|1|0|1|127.750334157876|37.8557933045297
강릉교동SK점|강원도 강릉시 하슬라로 159 |033-641-0332|1|1|0|0|0|1|128.874451946037|37.7643792914841
원주무실점|강원도 원주시 능라동길 61 |033-733-0282|1|1|0|0|0|0|127.9312331982|37.3341487868304
오션월드점|강원도 홍천군 서면 한치골길 262 |033-435-0787|0|0|0|0|0|0|127.687334801646|37.6523370640771
대명비발디점|강원도 홍천군 서면 한치골길 262 |033-435-1025|0|0|0|0|0|0|127.687334801646|37.6523370640771
원주명륜오일뱅크점|강원도 원주시 남원로 505 |070-7462-6816|1|1|0|0|0|1|127.945234032807|37.3297160197248
충북진천점|충청북도 진천군 진천읍 상산로 73 |043-533-8989|1|1|0|0|0|0|127.442321131515|36.8547468687531
충북대점|충청북도 청주시 서원구 1순환로 665-1 |043-271-0332|1|1|0|0|0|0|127.460701046948|36.6341885210455
청주율량점|충청북도 청주시 청원구 충청대로 176 |043-211-8595|1|1|0|0|0|0|127.496520601715|36.6718640413415
충주연수점|충청북도 충주시 연수동산로 47 |043-853-0700|1|1|0|0|0|0|127.941784788263|36.9867725727426
청주산남점|충청북도 청주시 흥덕구 산남로 48 |043-297-0009|1|1|0|0|0|0||
오창호수공원점|충청북도 청원군 오창읍 중심상업로 31-18 |043-215-9393|1|1|0|0|0|0|127.427919264934|36.7137890693149
청주터미널점|충청북도 청주시 흥덕구 풍산로 15 |043-238-0332|1|1|0|0|0|0|127.431993857632|36.6267841532375
청주예술의전당오일뱅크점|충청북도 청주시 흥덕구 직지대로 677 |070-7462-6866|1|1|0|0|0|1|127.468518991954|36.6430973180349
청주복대점|충청북도 청주시 흥덕구 대농로 47 |043-234-8884|1|1|0|0|0|0|127.427614853943|36.642339406467
청주오송점|충청북도 청주시 흥덕구 오송읍 오송생명로 178 |043-235-0411|1|1|0|0|0|0|127.32875508509|36.6314086362219
천안신부점|충청남도 천안시 동남구 만남로 48 |041-552-0232|1|1|0|0|0|0|127.157387077254|36.8186072282216
서산호수공원점|충청남도 서산시 호수공원6로 72 |041-663-5544|1|1|0|0|0|0|126.45118480274|36.7725883516391
천안두정점|충청남도 천안시 서북구 두정로 156 |041-566-0332|1|1|0|0|0|0|127.134272983357|36.8336631739663
당진읍내점|충청남도 당진시 당진중앙1로 95 |041-352-9133|1|0|0|0|0|0|126.62957337618|36.8943751478851
천안쌍용대로DT점|충청남도 천안시 동남구 쌍용대로 94 |041-573-8721|1|1|1|1|0|1|127.132800836745|36.8056825955923
충남도청점|충청남도 홍성군 청사로174번길 2 |041-635-0799|1|1|0|0|0|0|126.678987066939|36.6593870125874
천안불당점|충청남도 천안시 서북구 불당25로 176 |070-7462-6790|1|1|0|0|0|0|127.109126844444|36.8162380448409
군산나운FS점|전라북도 군산시 대학로 362(나운동) |063-464-2626|1|1|0|0|0|0|126.692043336183|35.9617576151999
전북도청점|전라북도 전주시 완산구 효자로 194 |063-224-0332|1|1|0|0|0|0|127.106471524844|35.8186328492288
전주서신대광SK점|전라북도 전주시 완산구 서신로 56 |063-272-0332|1|1|0|0|0|1|127.116130277851|35.830324689038
정읍중앙점|전라북도 정읍시 남북로 28 |063-535-3246|1|1|0|0|0|0|126.850378967414|35.5678208122618
군산조촌DT점|전라북도 군산시 번영로 143 |070-7438-8612|1|1|0|0|0|1|126.735273941692|35.9664503076108
원광대점|전라북도 익산시 무왕로 893 |063-852-0233|1|1|0|0|0|0|126.957962907078|35.96423669992
전북대점|전라북도 전주시 덕진구 권삼득로 295 |063-223-4300|1|1|0|0|0|0|127.12896713138|35.8427245318222
전주만성SK점|전라북도 전주시 덕진구 온고을로 441 |070-7462-6770|1|1|0|0|0|1|127.080213634435|35.8506498039194
군산수송점|전라북도 군산시 월명로 262 |063-466-1155|1|1|0|0|0|0|126.716070153038|35.967483654471
익산영등점|전라북도 익산시 무왕로 1068 |063-836-0233|1|1|0|0|0|0|126.97544330941|35.9581874729754
전주중앙점|전라북도 전주시 완산구 팔달로 225 |063-278-1505|1|1|0|0|0|0|127.145259552456|35.8222444105853
전주송천DT점|전라북도 전주시 덕진구 동부대로 1030 |070-7462-6794 |1|1|0|0|0|1|127.134366412648|35.8697836530393
광양중동점|전라남도 광양시 중마중앙로 65 |061-794-0031|1|1|0|0|0|0|127.69771737116|34.9361313373601
전남도청점|전라남도 무안군 삼향읍 남악3로 71 |061-285-6356|1|1|0|0|0|0|126.459770912373|34.8122209048397
나주빛가람점|전라남도 나주시 전력로 2 |061-333-5597|1|1|0|0|0|0|126.785384926139|35.0215716490186
목포하당점|전라남도 목포시 비파로 50 |061-287-6356|1|1|0|0|0|0|126.426987978755|34.8031807443662
광양LF스퀘어점|전라남도 광양시 광양읍 순광로 466 LF스퀘어 |061-815-4902|0|0|0|0|0|0|127.566309544195|34.9626554971042
순천법원점|전라남도 순천시 왕지로 8-1 |061-727-6006|1|1|0|0|0|0|127.522820650603|34.9696766116735
여수웅천점|전라남도 여수시 예울마루로 37-15 |061-685-0282|1|1|0|0|0|0|127.670874134773|34.7465583053663
김천혁신도시점|경상북도 김천시 혁신3로 17 |054-433-6709|1|1|0|0|0|0|128.183434629244|36.1170286938188
포항버스터미널점|경상북도 포항시 남구 중흥로 96 |054-274-0332|1|1|0|1|0|0|129.351024268995|36.0135068260361
포항법원앞DT점|경상북도 포항시 북구 신덕로 257 |054-256-0332 |1|1|0|0|0|1|129.387927760121|36.0874147693132
구미인의점|경상북도 구미시 인동중앙로 16 |054-472-7433|1|1|0|0|0|0|128.421150351696|36.1068788819623
경주보문점|경상북도 경주시 엑스포로 80 |070-8801-5704|1|0|0|0|0|0|129.289867969915|35.8345570262963
경산하양오일뱅크점|경상북도 경산시 대경로 559 |053-851-2608|1|1|0|0|0|1|128.805816157466|35.9020268056596
경북도청점|경상북도 안동시 검무로 4-8 |054-900-5655|1|1|0|0|0|0|128.493391203906|36.5759701508182
포항철강단지SK점|경상북도 포항시 남구 대송로 290 |070-7462-6722|0|1|0|0|0|1|129.381562126092|36.0022003341197
구미시청FS점|경상북도 구미시 송정대로 40 |070-7438-8218|1|1|0|0|0|0|128.343102447877|36.1174241900375
포항공대점|경상북도 포항시 남구 청암로 77 |054-279-2585|0|1|0|0|0|0|129.321301170832|36.0105883055805
대구대점|경상북도 경산시 대구대로 201 |053-852-2254|0|0|0|0|0|0|128.842813264293|35.904538973767
구미신평점|경상북도 구미시 칠성로6길 56 |054-461-7997|1|1|0|0|0|0|128.362025867307|36.1233447276879
구미도량DT점|경상북도 구미시 야은로 320 |070-7462-6706|1|1|0|0|0|1||
경산진량DT점|경상북도 경산시 진량읍 다문로 53 |070-7462-6756|1|1|0|0|0|1|128.816762577713|35.8751568754372
안동중앙점|경상북도 안동시 문화광장길 40-6 |054-842-1177|1|1|0|0|0|0|128.731287405941|36.564719701673
경산사동점|경상북도 경산시 백자로 55 |053-815-2244|1|1|0|0|0|0|128.753914601978|35.8113356781775
경북상주점|경상북도 상주시 중앙로 186-2 |054-534-2227|1|1|0|0|0|0|128.158784071703|36.4154563659573
구미이마트점|경상북도 구미시 구미대로 256 |054-461-0331|1|1|0|0|0|0|128.364892685404|36.1094735939811
경주터미널FS점|경상북도 경주시 강변로 158-3 |070-7438-6505|1|1|0|0|0|0|129.203076471143|35.8379471240755
안동옥동점|경상북도 안동시 경북대로 381 |054-857-6677|1|1|0|0|0|0|128.701924708747|36.5636553458561
한동대점|경상북도 포항시 북구 흥해읍 한동로 558 |070-4140-0109|0|0|0|0|0|0|129.389266058166|36.1023014256562
경북영주가흥점|경상북도 영주시 대동로 24 |054-632-5989|1|1|0|0|0|0|128.604909016666|36.8149046854001
김천교동DT점|경상북도 김천시 대학로 75(교동) |054-432-5959|1|1|0|0|1|1|128.095101391062|36.1344519471811
창원상남FS점|경상남도 창원시 성산구 마디미로3번길 18 |070-7438-8228|1|1|0|0|0|0|128.687151725866|35.2227514734743
거제옥포점|경상남도 거제시 옥포로 161 |055-688-5533|1|1|0|0|0|0|128.692975964369|34.8896463231181
마산내서삼계SK점|경상남도 창원시 마산회원구 내서읍 경남대로 941 |055-231-0332|1|1|0|0|0|1|128.504110854725|35.234002478073
경남대점|경상남도 창원시 마산합포구 해안대로 6 |055-222-6661|0|0|0|0|0|0|128.559423365394|35.1802269903357
김해아이스퀘어몰점|경상남도 김해시 김해대로 2352 |055-327-0700|1|1|0|0|0|0|128.8841858189|35.225850688158
거제수월점|경상남도 거제시 수양로 471 |055-634-1116|1|1|0|0|0|0|128.639533683635|34.8916616410898
김해장유DT점|경상남도 김해시 반룡로 70 |070-7462-6714|1|1|0|0|0|1|128.805499211551|35.1884331593046
김해내외점|경상남도 김해시 분성로 153 |070-7462-6776|1|1|0|0|0|0|128.863756959888|35.2302244664025
양산석산SK점|경상남도 양산시 동면 양산대로 414 |070-7462-6740|1|1|0|0|0|1|129.027796217923|35.3095883472383
양산웅상DT점|경상남도 양산시 웅상대로 1204 |070-7462-6749|1|1|0|0|0|1|129.164016615358|35.4055518394671
인제대점|경상남도 김해시 인제로 197 인제대학교 |055-320-4049|1|1|0|0|0|0|128.900515324646|35.2528100895983
거제고현점|경상남도 거제시 서문로5길 6 |055-632-5989|1|1|0|0|0|0|128.621011201171|34.8892185469671
동김해DT점|경상남도 김해시 김해대로 2499 |070-7438-6506|1|1|0|0|0|1|128.900116015664|35.2283081238935
마산합성점|경상남도 창원시 마산회원구 3.15대로 757 |055-294-4114|1|1|0|0|0|0|128.583014067319|35.2395717206514
진주혁신도시점|경상남도 진주시 사들로 97 |055-761-6363|1|1|0|0|0|0|128.148561723357|35.1762138286085
김해삼계점|경상남도 김해시 가야로 178 |055-325-1500|1|1|0|0|0|0|128.87157163955|35.2617518430947
경남사천점|경상남도 사천시 사천읍 옥산로 30 |055-854-5354|1|1|0|0|0|0|128.086223903812|35.0795680659829
진주경상대점|경상남도 진주시 진주대로 540 |055-756-5658|1|1|0|0|0|0|128.107243620775|35.1546134315485
진해충무DT점|경상남도 창원시 진해구 충장로 103 (여좌동 761-41) |070-7462-6771|1|1|0|0|0|1|128.663433566181|35.1527773395831
양산하나로마트점|경상남도 양산시 증산역로 177 라피에스타 지하1층 |070-7462-6802|0|0|0|0|0|0|129.009381113145|35.3098759435218
양산물금DT점|경상남도 양산시 물금읍 물금리 867-3 |070-7462-6873|1|1|0|0|0|1|128.986600463067|35.3095320874263
마산회원FS점|경상남도 창원시 마산회원구 315대로 522 |070-7462-6872|1|1|0|0|0|0|128.57426853976|35.2209029192629
진주평거점|경상남도 진주시 진양호로 221 |070-7462-6879|1|1|0|0|0|0|128.060177677554|35.1738634691526
창원광장점|경상남도 창원시 성산구 용지로133번길 3 |070-7462-6824|1|1|0|0|0|0|128.679413748907|35.2273085066725
